"Neptune" "Sol"
{
	Texture "neptune.*"
	Color [ 0.75 0.75 1.0 ]
	HazeColor [ 0.6 1 0.75 ]
	HazeDensity 0.35
	Radius 24766 # equatorial
	Oblateness 0.017

	CustomOrbit "vsop87-neptune"

	# Overridden by CustomOrbit
	# EllipticalOrbit
	# {
	#    Period           164.793
	#    SemiMajorAxis     30.0690
	#    Eccentricity      0.0086
	#    Inclination       1.7692
	#    AscendingNode   131.722
	#    LongOfPericenter 44.971
        #    MeanLongitude   304.880
	# }

	Atmosphere {
		Height 130
		Lower [ 0.6 0.65 1.0 ]
		Upper [ 0.5 0.55 0.9 ]
		Sky [ 0.5 0.7 0.9 ]
	}

	BodyFrame { EclipticJ2000 {} }
	UniformRotation
	{
	    Period          16.11 # System III (magnetic field)
	    Inclination     28.03
	    AscendingNode   49.24
	    MeridianAngle  228.66 # correct System III prime meridian
	}

	Albedo                 0.62

	Rings {
		Inner  53150
		Outer  62947
		Texture "neptune-rings.png"
	}
}

"Larissa:Neptune VII:1989 N 2" "Sol/Neptune"
{
	Texture	 	"asteroid.jpg"
	Mesh		"larissa.cmod"
	Radius		100 # maximum semi-axis
	MeshCenter [ 4.564 -0.126 0.302 ]

	EllipticalOrbit
	{
	    Period		0.554654
	    SemiMajorAxis	73548
	    Eccentricity	0.0014
	    Inclination	        0.744
	    AscendingNode	324.857
	    ArgOfPericenter	215.004	# J2000.0
	    MeanAnomaly         157.543
	}

	BodyFrame { EquatorJ2000 {} }
	UniformRotation
	{
	    Inclination    46.59
	    AscendingNode  29.36
	    MeridianAngle 179.41
	}

	Albedo 0.056
}

"Proteus:Neptune VIII:1989 N 1" "Sol/Neptune"
{
	Mesh "proteus.cmod"
	Texture "proteus.*" # Phil Stooke
	Radius    219 # maximum semi-axis
	MeshCenter [ -4.146 -0.022 5.153 ]

	EllipticalOrbit
	{
  	    Epoch		2450085.5 # 1996 Jan 3 00:00UT
	    Period		1.122315  # mean
	    SemiMajorAxis	117647    # mean
	    Eccentricity	0.0005    # mean
	    Inclination         1.090     # at epoch
	    AscendingNode	330.943   # at epoch
	    ArgOfPericenter	267.246   # at epoch 
	    MeanAnomaly         213.916   # at epoch 
	}

	BodyFrame { EquatorJ2000 {} }
	UniformRotation
	{
	    Inclination    47.09
	    AscendingNode  29.27
	    MeridianAngle  93.38
	}

	Albedo         0.061
}

"Triton:Neptune I" "Sol/Neptune"
{
	Texture "triton.*"
	Radius   1353.4

	Atmosphere {
		Height 1
		Lower [ 0.5 0.5 0.5 ]
		Upper [ 0.5 0.5 0.5 ]
		Sky [ 0.0 0.0 0.0 ]
	}

	EllipticalOrbit
	{
	    Epoch		2447763.5    # 1989 Aug 25 00:00UT (Voyager encounter)
	    Period		  5.8768541  #  mean
	    SemiMajorAxis	354765.286   # at epoch
	    Eccentricity	  0.00002285 # at epoch
	    Inclination	        156.826240   # at epoch
	    AscendingNode	147.899288   # at epoch
	    ArgOfPericenter	293.092400   # at epoch
	    MeanAnomaly 	315.726316   # at epoch
	}

	BodyFrame { EquatorJ2000 {} }
	UniformRotation
	{
	    Epoch     2447763.5  # 1989 Aug 25 00:00UT (Voyager encounter)
	    Inclination   110.44 # at epoch
	    AscendingNode 206.17 # at epoch
	    MeridianAngle  77.41 # at epoch
	}

	Albedo         0.756
}

AltSurface "limit of knowledge" "Sol/Neptune/Triton"
{
	Texture "triton.*"
	OverlayTexture "triton-lok-mask.png"
}

"Nereid:Neptune II" "Sol/Neptune"
{
	Mesh "asteroid.cms"
	Texture "asteroid.jpg"
	Radius   170

	EllipticalOrbit
	{
	    Epoch		2447763.5 # 1989 Aug 25 00:00UT (Voyager encounter)
	    Period		360.13619 # mean
	    SemiMajorAxis	5513400   # mean
	    Eccentricity	  0.7512  # mean
	    Inclination		 28.385   # at epoch
	    AscendingNode	190.678   # at epoch
	    ArgOfPericenter 	 17.690   # at epoch
	    MeanAnomaly    	 36.056   # at epoch
	}

        # Figure of 11.52 +/- 0.14 hours from Grav, T. et al. (2003)
        # "The Short Rotation Period of Nereid", ApJ 591
	UniformRotation
	{
	    Period 11.52	
	}
	Albedo          0.155
}

ReferencePoint "Pluto-Charon" "Sol"
{
    CustomOrbit "pluto"

    # Make the orbit and label visible
    Visible true
    Clickable true
}

# Updated from "Masses of Nix and Hydra" Tholen et al. 
# http://arxiv.org/ftp/arxiv/papers/0712/0712.1261.pdf

"Pluto:134340 Pluto" "Sol"
{
    Class "dwarfplanet"
    Texture "pluto-lok.*"
    SpecularTexture "pluto-lok-spec.*"
    SpecularColor            [ 0.135 0.12 0.08 ]
    SpecularPower             9.5

    Radius 1151

    OrbitFrame {
        EquatorJ2000 { Center "Sol/Pluto-Charon" }
    }

    BodyFrame {
        EclipticJ2000 { Center "Sol/Pluto-Charon" }
    }

    EllipticalOrbit
    {
	Epoch		2452600.5   # 2002 Nov 22
        Period           6.387206   # mean
        SemiMajorAxis    2043.1     # mass ratio of 0.1166
        Eccentricity     0.003484   # mean
        Inclination      96.1680    # mean
        AscendingNode   223.0539    # mean
        ArgOfPericenter 337.92      # mean
        MeanLongitude	 77.960     
    }

    UniformRotation
    {
    Period		153.292944
    Inclination		115.60
    AscendingNode	228.34
    MeridianAngle	320.75
    }
	
    Albedo           0.55
}

AltSurface "limit of knowledge" "Sol/Pluto"
{
    Texture "pluto-lok.*"
    SpecularTexture "pluto-lok-spec.*"
    SpecularColor            [ 0.135 0.12 0.08 ]
    SpecularPower             9.5
}

"Charon:Pluto I:134340 Pluto I:1978 P 1" "Sol/Pluto"
{
    Texture "charon-lok.*"
    SpecularTexture "charon-lok-spec.*"
    SpecularColor            [ 0.135 0.12 0.08 ]
    SpecularPower             9.5

    Radius   593

    InfoURL "http://www.nineplanets.org/pluto.html#Charon"

    OrbitFrame {
        EquatorJ2000 { Center "Sol/Pluto-Charon" }
    }

    BodyFrame {
        EclipticJ2000 { Center "Sol/Pluto-Charon" }
    }

    EllipticalOrbit
    {
	Epoch		2452600.5 # 2002 Nov 22
        Period          6.387206
        SemiMajorAxis   17527.4   # mass ratio of 0.1166
        Eccentricity    0.003484  # mean
        Inclination      96.1680  # mean
        AscendingNode   223.0539  # mean
        ArgOfPericenter 157.92    # mean
        MeanLongitude   257.960
    }

    UniformRotation
    {
    Period              153.292944
    Inclination         115.9
    AscendingNode       227.3
    MeridianAngle       140.4
    }
	
    Albedo               0.35
}

AltSurface "limit of knowledge" "Sol/Pluto/Charon"
{
	Texture "charon-lok.*"
        SpecularTexture "charon-lok-spec.*"
        SpecularColor            [ 0.135 0.12 0.08 ]
        SpecularPower             9.5
}
